[
    {
        "Altitude(m)": 607897.6386238579,
        "Argument of Periapsis(deg)": 0.0,
        "Eccentricity": 0.0,
        "Inclination(deg)": 60.0,
        "Latitude(deg)": -14.293069773408874,
        "Longitude(deg)": -123.38125958606145,
        "Mean Anomaly(deg)": -16.363600000000087,
        "RAAN(deg)": 345.0,
        "Satellite Name": "Test1 1539",
        "Satellite Number": 1539,
        "Semi-Major Axis(m)": 6980739.136638005,
        "Time(s)": 0
    },
    {
        "Altitude(m)": 607750.8391340986,
        "Argument of Periapsis(deg)": 0.00010418945913296404,
        "Eccentricity": 0.0,
        "Inclination(deg)": 60.0,
        "Latitude(deg)": -13.758911471597248,
        "Longitude(deg)": -123.09418992379761,
        "Mean Anomaly(deg)": -15.743493854538235,
        "RAAN(deg)": 344.99957995086027,
        "Satellite Name": "Test1 1539",
        "Satellite Number": 1539,
        "Semi-Major Axis(m)": 6980739.136638005,
        "Time(s)": 10
    }
]